
## Time 

CJTF is located UTC+4
The server will start at 1800z and the time ingame will be 0000L  

## Weather Report

### TAF 

CJTF101 OMDB 021059Z 0212/0318 33012KT CAVOK<br>
BECMG 0216/0218 10007KT<br>
BECMG 0303/0305 08010KT<br>
BECMG 0308/0310 33012KT<br>
BECMG 0315/0317 07005KT=

### Other Weather Advisories 
NO OTHER ADVISORIES AT THIS TIME