
## Time 

CJTF is located UTC+4<br>
OPBH Day 3<br>
The server will start at 1800z and the time ingame will be 0000L  

## Weather Report

### TAF 

CJTF101 021700Z 0218/0400 30007KT 8000 NSC<br>
BECMG 0305/0307 27013KT<br>
PROB30 TEMPO 0308/0313 28017G27KT<br>

### Other Weather Reports  
#### Weather Satellite
![WXSatellite](/OPBH-Brief/IMAGES/DAY3WXSAT.png)
