## Weather Report

CJTF is location UTC+4

### TAF 
CJTF101 021655Z 0218/0316 31015KT 12000 NSC<br>
BECMG 0300/0306 20005KT<br>
PROB40 0302/0306 3000 BR BKN004<br>
PROB30 TEMPO 0300/0305 0500 FG BKN001<br>
BECMG 0308/0310 32012KT<br>
BECMG 0316/0316 VRB02KT

### Other Weather Advisories 
NO OTHER ADVISORIES AT THIS TIME